NORAD_CAT_ID,OBJECT_NAME,OBJECT_TYPE,EPOCH,MEAN_MOTION,ECCENTRICITY,INCLINATION,RA_OF_ASC_NODE,ARG_OF_PERICENTER,MEAN_ANOMALY,BSTAR,MEAN_MOTION_DOT,MEAN_MOTION_DDOT,TLE_LINE0,TLE_LINE1,TLE_LINE2,SEMIMAJOR_AXIS,PERIOD,APOGEE,PERIGEE,DECAYED
52644.0,STARLINK-3985,PAYLOAD,2022-07-16 14:00:01,15.73202228,0.0003037,53.2154,129.0586,9.9624,68.9708,-0.00020425,-0.00029199,0.0,0 STARLINK-3985,1 52644U 22052AY  22197.58334491 -.00029199  00000-0 -20425-3 0  9998,2 52644  53.2154 129.0586 0003037   9.9624  68.9708 15.73202228  1301,6727.889,91.533,351.797,347.711,0.0
52644.0,STARLINK-3985,PAYLOAD,2022-07-16 20:00:01,15.73176817,0.0002946,53.2156,127.8211,10.1779,45.4487,9.8267e-05,0.00013179,0.0,0 STARLINK-3985,1 52644U 22052AY  22197.83334491  .00013179  00000-0  98267-4 0  9995,2 52644  53.2156 127.8211 0002946  10.1779  45.4487 15.73176817 10305,6727.9609999999975,91.535,351.80800000000005,347.844,0.0
52644.0,STARLINK-3985,PAYLOAD,2022-07-16 22:00:00,15.731876500000002,0.0002984,53.2156,127.4093,9.4877,158.3886,0.00026926,0.00037322,0.0,0 STARLINK-3985,1 52644U 22052AY  22197.91667824  .00037322  00000-0  26926-3 0  9991,2 52644  53.2156 127.4093 0002984   9.4877 158.3886 15.73187650  1305,6727.93,91.534,351.80300000000005,347.788,0.0
52644.0,STARLINK-3985,PAYLOAD,2022-07-17 04:00:01,15.73210971,0.0003273999999999,53.2159,126.173,10.4155,134.219,0.00018546,0.00025503,0.0,0 STARLINK-3985,1 52644U 22052AY  22198.16668981  .00025503  00000-0  18546-3 0  9991,2 52644  53.2159 126.1730 0003274  10.4155 134.2190 15.73210971 10355,6727.864000000001,91.533,351.932,347.526,0.0
52644.0,STARLINK-3985,PAYLOAD,2022-07-17 12:00:00,15.73232682,0.0003118,53.2154,124.5227,10.9819,222.5263,-0.00056279,-0.00079003,0.0,0 STARLINK-3985,1 52644U 22052AY  22198.50001157 -.00079003  00000-0 -56279-3 0  9996,2 52644  53.2154 124.5227 0003118  10.9819 222.5263 15.73232682 10403,6727.802,91.531,351.765,347.569,0.0
52644.0,STARLINK-3985,PAYLOAD,2022-07-17 14:00:01,15.73208299,0.0003038,53.2155,124.1097,11.2525,334.4985,-0.00033517,-0.00047426,0.0,0 STARLINK-3985,1 52644U 22052AY  22198.58334491 -.00047426  00000-0 -33517-3 0  9998,2 52644  53.2155 124.1097 0003038  11.2525 334.4985 15.73208299  1304,6727.871999999999,91.533,351.78,347.6930000000001,0.0
52644.0,STARLINK-3985,PAYLOAD,2022-07-17 22:00:00,15.73183563,0.0003008,53.2162,122.4579,13.8081,60.8625,-0.00064681,-0.00090391,0.0,0 STARLINK-3985,1 52644U 22052AY  22198.91667824 -.00090391  00000-0 -64681-3 0  9999,2 52644  53.2162 122.4579 0003008  13.8081  60.8625 15.73183563  1307,6727.941999999999,91.534,351.831,347.783,0.0
52644.0,STARLINK-3985,PAYLOAD,2022-07-18 12:00:00,15.73155156,0.0003095,53.2147,119.5744,15.9737,124.1485,0.0002129,0.0002931,0.0,0 STARLINK-3985,1 52644U 22052AY  22199.50001157  .00029310  00000-0  21290-3 0  9996,2 52644  53.2147 119.5744 0003095  15.9737 124.1485 15.73155156 10561,6728.023,91.536,351.97,347.806,0.0
52644.0,STARLINK-3985,PAYLOAD,2022-07-18 14:00:01,15.73143376,0.0003034,53.2146,119.1615,16.418,235.9352,0.00059622,0.00083702,0.0,0 STARLINK-3985,1 52644U 22052AY  22199.58334491  .00083702  00000-0  59622-3 0  9999,2 52644  53.2146 119.1615 0003034  16.4180 235.9352 15.73143376  1301,6728.057,91.536,351.963,347.88,0.0
52644.0,STARLINK-3985,PAYLOAD,2022-07-18 20:00:01,15.73200003,0.0002973,53.2149,117.9245,18.5591,210.4537,0.00037231,0.00051962,0.0,0 STARLINK-3985,1 52644U 22052AY  22199.83334491  .00051962  00000-0  37231-3 0  9992,2 52644  53.2149 117.9245 0002973  18.5591 210.4537 15.73200003 10617,6727.895,91.533,351.76,347.76,0.0
52644.0,STARLINK-3985,PAYLOAD,2022-07-18 22:00:00,15.7322114,0.0003047,53.2154,117.5118,17.9159,323.3274,0.00015465,0.0002116,0.0,0 STARLINK-3985,1 52644U 22052AY  22199.91667824  .00021160  00000-0  15465-3 0  9992,2 52644  53.2154 117.5118 0003047  17.9159 323.3274 15.73221140  1307,6727.835,91.532,351.75,347.65,0.0
52644.0,STARLINK-3985,PAYLOAD,2022-07-19 04:00:00,15.73210512,0.0003284,53.2153,116.2758,16.7471,301.1932,0.00040611,0.00056797,0.0,0 STARLINK-3985,1 52644U 22052AY  22200.16667824  .00056797  00000-0  40611-3 0  9997,2 52644  53.2153 116.2758 0003284  16.7471 301.1932 15.73210512 10664,6727.865,91.533,351.94,347.521,0.0
52644.0,STARLINK-3985,PAYLOAD,2022-07-19 14:00:01,15.73204288,0.0002956,53.2147,114.2126,14.2857,144.9096,0.00062505,0.00088054,0.0,0 STARLINK-3985,1 52644U 22052AY  22200.58334491  .00088054  00000-0  62505-3 0  9991,2 52644  53.2147 114.2126 0002956  14.2857 144.9096 15.73204288  1308,6727.8830000000025,91.533,351.737,347.759,0.0
52644.0,STARLINK-3985,PAYLOAD,2022-07-19 22:00:00,15.73286573,0.0002975,53.2158,112.5612,17.7725,230.3677,-0.00085624,-0.00119574,0.0,0 STARLINK-3985,1 52644U 22052AY  22200.91667824 -.00119574  00000-0 -85624-3 0  9998,2 52644  53.2158 112.5612 0002975  17.7725 230.3677 15.73286573  1306,6727.648,91.528,351.515,347.51199999999994,0.0
52644.0,STARLINK-3985,PAYLOAD,2022-07-20 12:00:00,15.7325038,0.0002877,53.2141,109.6761,13.2992,300.6675,-0.0003781,-0.00053477,0.0,0 STARLINK-3985,1 52644U 22052AY  22201.50001157 -.00053477  00000-0 -37810-3 0  9998,2 52644  53.2141 109.6761 0002877  13.2992 300.6675 15.73250380 10876,6727.752,91.53,351.552,347.681,0.0
52644.0,STARLINK-3985,PAYLOAD,2022-07-20 14:00:01,15.73217549,0.0002804,53.2141,109.2632,12.0891,54.1326,-3.2596e-05,-5.199e-05,0.0,0 STARLINK-3985,1 52644U 22052AY  22201.58334491 -.00005199  00000-0 -32596-4 0  9991,2 52644  53.2141 109.2632 0002804  12.0891  54.1326 15.73217549  1306,6727.845,91.532,351.597,347.824,0.0
52644.0,STARLINK-3985,PAYLOAD,2022-07-20 22:00:01,15.73212132,0.0002935,53.2145,107.6145,13.6192,141.6053,-0.00074338,-0.00103756,0.0,0 STARLINK-3985,1 52644U 22052AY  22201.91668981 -.00103756  00000-0 -74338-3 0  9999,2 52644  53.2145 107.6145 0002935  13.6192 141.6053 15.73212132  1309,6727.861,91.532,351.7,347.751,0.0
52644.0,STARLINK-3985,PAYLOAD,2022-07-21 04:00:00,15.73200204,0.0002622,53.2175,106.3728,14.0043,117.6719,5.8608e-05,7.612e-05,0.0,0 STARLINK-3985,1 52644U 22052AY  22202.16667824  .00007612  00000-0  58608-4 0  9997,2 52644  53.2175 106.3728 0002622  14.0043 117.6719 15.73200204 10981,6727.895,91.533,351.524,347.996,0.0
52644.0,STARLINK-3985,PAYLOAD,2022-07-21 12:00:00,15.73172388,0.0002931999999999,53.2147,104.7272,8.5957,212.1892,2.9271e-05,3.483e-05,0.0,0 STARLINK-3985,1 52644U 22052AY  22202.50001157  .00003483  00000-0  29271-4 0  9992,2 52644  53.2147 104.7272 0002932   8.5957 212.1892 15.73172388 11033,6727.974,91.535,351.81199999999984,347.866,0.0
52644.0,STARLINK-3985,PAYLOAD,2022-07-21 14:00:01,15.73132539,0.0002863,53.2145,104.3144,9.8229,323.2652,0.00064765,0.00091011,0.0,0 STARLINK-3985,1 52644U 22052AY  22202.58335648  .00091011  00000-0  64765-3 0  9995,2 52644  53.2145 104.3144 0002863   9.8229 323.2652 15.73132539  1305,6728.0880000000025,91.537,351.879,348.026,0.0
52644.0,STARLINK-3985,PAYLOAD,2022-07-21 22:00:00,15.7323345,0.0002967,53.2144,102.6664,9.5927,52.3085,-0.00063793,-0.00089359,0.0,0 STARLINK-3985,1 52644U 22052AY  22202.91667824 -.00089359  00000-0 -63793-3 0  9990,2 52644  53.2144 102.6664 0002967   9.5927  52.3085 15.73233450  1303,6727.8,91.531,351.661,347.6690000000001,0.0
52644.0,STARLINK-3985,PAYLOAD,2022-07-22 06:00:00,15.73165459,0.0003058,53.2139,101.0174,6.3646,144.4722,0.00045843,0.00064125,0.0,0 STARLINK-3985,1 52644U 22052AY  22203.25001157  .00064125  00000-0  45843-3 0  9997,2 52644  53.2139 101.0174 0003058   6.3646 144.4722 15.73165459  1305,6727.994000000002,91.535,351.916,347.801,0.0
52644.0,STARLINK-3985,PAYLOAD,2022-07-22 12:00:00,15.73184062,0.0002787,53.2142,99.7786,5.4934,122.0298,0.00055942,0.00078584,0.0,0 STARLINK-3985,1 52644U 22052AY  22203.50001157  .00078584  00000-0  55942-3 0  9990,2 52644  53.2142  99.7786 0002787   5.4934 122.0298 15.73184062 11198,6727.941,91.534,351.681,347.931,0.0
52644.0,STARLINK-3985,PAYLOAD,2022-07-22 22:00:00,15.73280038,0.0002867,53.2145,97.7175,4.4533,324.2639,-0.00061264,-0.00086043,0.0,0 STARLINK-3985,1 52644U 22052AY  22203.91667824 -.00086043  00000-0 -61264-3 0  9999,2 52644  53.2145  97.7175 0002867   4.4533 324.2639 15.73280038  1301,6727.667,91.529,351.461,347.603,0.0
52644.0,STARLINK-3985,PAYLOAD,2022-07-23 12:00:00,15.73008402,0.0002796999999999,53.2171,94.8238,8.6359,25.7305,-0.0030912,-0.00410709,0.0,0 STARLINK-3985,1 52644U 22052AY  22204.50001157 -.00410709  00000-0 -30912-2 0  9991,2 52644  53.2171  94.8238 0002797   8.6359  25.7305 15.73008402 11343,6728.441,91.544,352.18800000000016,348.425,0.0
52644.0,STARLINK-3985,PAYLOAD,2022-07-23 14:00:01,15.73047536,0.0002661,53.2171,94.4104,14.0489,132.5199,-0.0051405,-0.00663729,0.0,0 STARLINK-3985,1 52644U 22052AY  22204.58335648 -.00663729  00000-0 -51405-2 0  9996,2 52644  53.2171  94.4104 0002661  14.0489 132.5199 15.73047536  1300,6728.33,91.542,351.985,348.404,0.0
52644.0,STARLINK-3985,PAYLOAD,2022-07-23 22:00:00,15.72569811,0.0003156,53.2175,92.7615,9.6208,225.3606,-0.0085517999999999,-0.01052263,0.0,0 STARLINK-3985,1 52644U 22052AY  22204.91667824 -.01052263  00000-0 -85518-2 0  9995,2 52644  53.2175  92.7615 0003156   9.6208 225.3606 15.72569811  1309,6729.691999999999,91.57,353.681,349.434,0.0
52644.0,STARLINK-3985,PAYLOAD,2022-07-24 14:00:01,15.71050263,0.0002764,53.2172,89.4653,10.1074,39.3789,-0.0091224,-0.01051819,0.0,0 STARLINK-3985,1 52644U 22052AY  22205.58334491 -.01051819  00000-0 -91224-2 0  9997,2 52644  53.2172  89.4653 0002764  10.1074  39.3789 15.71050263  1303,6734.031,91.658,357.75699999999995,354.035,0.0
52644.0,STARLINK-3985,PAYLOAD,2022-07-24 22:00:00,15.70294635,0.0003177999999999,53.2172,87.8227,0.4001,134.966,-0.0094655,-0.01056753,0.0,0 STARLINK-3985,1 52644U 22052AY  22205.91667824 -.01056753  00000-0 -94655-2 0  9996,2 52644  53.2172  87.8227 0003178   0.4001 134.9660 15.70294635  1306,6736.191,91.703,360.19699999999995,355.916,0.0
